
# Worst residual: 130.47 km
# MJD 57705.000000 (2016 Nov 13  0:00)
2013-070B = NORAD 39459 = UX29E26 = Chang'e 3 booster
1 39459U 13070B   16318.49921083  .00000000  00000-0  00000-0 0    09
2 39459 069.1693 353.5430 5324037 056.9173 314.8307 00.03160038    01

# Worst residual: 126.33 km
# MJD 57706.000000 (2016 Nov 14  0:00)
2013-070B = NORAD 39459 = UX29E26 = Chang'e 3 booster
1 39459U 13070B   16319.49921083  .00000000  00000-0  00000-0 0    00
2 39459 069.2957 352.9054 5469469 061.8524 322.4353 00.03350560    01

# Worst residual: 117.68 km
# MJD 57707.000000 (2016 Nov 15  0:00)
2013-070B = NORAD 39459 = UX29E26 = Chang'e 3 booster
1 39459U 13070B   16320.49921083  .00000000  00000-0  00000-0 0    02
2 39459 069.7040 352.1993 5519643 066.4969 330.6488 00.03615142    07

# Worst residual: 122.46 km
# MJD 57708.000000 (2016 Nov 16  0:00)
2013-070B = NORAD 39459 = UX29E26 = Chang'e 3 booster
1 39459U 13070B   16321.49921083  .00000000  00000-0  00000-0 0    03
2 39459 070.2987 351.7584 5447908 069.4823 341.0460 00.03920572    03

# Worst residual: 172.27 km
# MJD 57709.000000 (2016 Nov 17  0:00)
2013-070B = NORAD 39459 = UX29E26 = Chang'e 3 booster
1 39459U 13070B   16322.49921083  .00000000  00000-0  00000-0 0    04
2 39459 070.8505 351.8297 5286808 069.3797 354.8250 00.04208899    07

# Worst residual: 159.19 km
# MJD 57710.000000 (2016 Nov 18  0:00)
2013-070B = NORAD 39459 = UX29E26 = Chang'e 3 booster
1 39459U 13070B   16323.49921083  .00000000  00000-0  00000-0 0    05
2 39459 070.9490 352.1899 5263928 066.6745 011.3098 00.04265341    04

# Worst residual: 93.72 km
# MJD 57711.000000 (2016 Nov 19  0:00)
2013-070B = NORAD 39459 = UX29E26 = Chang'e 3 booster
1 39459U 13070B   16324.49921083  .00000000  00000-0  00000-0 0    06
2 39459 070.7726 352.2123 5380450 065.3992 026.5127 00.04147570    09

# Worst residual: 65.29 km
# MJD 57712.000000 (2016 Nov 20  0:00)
2013-070B = NORAD 39459 = UX29E26 = Chang'e 3 booster
1 39459U 13070B   16325.49921083  .00000000  00000-0  00000-0 0    07
2 39459 070.8115 352.0130 5472937 064.7605 041.0637 00.04089103    09

# Worst residual: 59.72 km
# MJD 57713.000000 (2016 Nov 21  0:00)
2013-070B = NORAD 39459 = UX29E26 = Chang'e 3 booster
1 39459U 13070B   16326.49921083  .00000000  00000-0  00000-0 0    08
2 39459 071.0323 351.8686 5556647 063.4443 056.3971 00.04118264    04

# Worst residual: 50.06 km
# MJD 57714.000000 (2016 Nov 22  0:00)
2013-070B = NORAD 39459 = UX29E26 = Chang'e 3 booster
1 39459U 13070B   16327.49921083  .00000000  00000-0  00000-0 0    09
2 39459 071.1394 351.7737 5651915 061.7904 072.5584 00.04189026    00

# Worst residual: 34.18 km
# MJD 57715.000000 (2016 Nov 23  0:00)
2013-070B = NORAD 39459 = UX29E26 = Chang'e 3 booster
1 39459U 13070B   16328.49921083  .00000000  00000-0  00000-0 0    00
2 39459 071.0184 351.6042 5737381 060.5487 088.9653 00.04251872    06

# Worst residual: 18.37 km
# MJD 57716.000000 (2016 Nov 24  0:00)
2013-070B = NORAD 39459 = UX29E26 = Chang'e 3 booster
1 39459U 13070B   16329.49921083  .00000000  00000-0  00000-0 0    01
2 39459 070.8034 351.3530 5790290 059.9162 105.2239 00.04286818    07

# Worst residual: 8.64 km
# MJD 57717.000000 (2016 Nov 25  0:00)
2013-070B = NORAD 39459 = UX29E26 = Chang'e 3 booster
1 39459U 13070B   16330.49921083  .00000000  00000-0  00000-0 0    03
2 39459 070.6400 351.1063 5809393 059.6858 121.2454 00.04297347    01

# Worst residual: 11.23 km
# MJD 57718.000000 (2016 Nov 26  0:00)
2013-070B = NORAD 39459 = UX29E26 = Chang'e 3 booster
1 39459U 13070B   16331.49921083  .00000000  00000-0  00000-0 0    04
2 39459 070.5787 350.9362 5805242 059.6292 137.0406 00.04292700    08

# Worst residual: 15.55 km
# MJD 57719.000000 (2016 Nov 27  0:00)
2013-070B = NORAD 39459 = UX29E26 = Chang'e 3 booster
1 39459U 13070B   16332.49921083  .00000000  00000-0  00000-0 0    05
2 39459 070.6009 350.8641 5789526 059.6182 152.6168 00.04280607    00

# Worst residual: 17.81 km
# MJD 57720.000000 (2016 Nov 28  0:00)
2013-070B = NORAD 39459 = UX29E26 = Chang'e 3 booster
1 39459U 13070B   16333.49921083  .00000000  00000-0  00000-0 0    06
2 39459 070.6616 350.8678 5770944 059.6104 167.9703 00.04266408    09

# Worst residual: 18.24 km
# MJD 57721.000000 (2016 Nov 29  0:00)
2013-070B = NORAD 39459 = UX29E26 = Chang'e 3 booster
1 39459U 13070B   16334.49921083  .00000000  00000-0  00000-0 0    07
2 39459 070.7163 350.8997 5754359 059.6093 183.1083 00.04253489    06

# Worst residual: 17.42 km
# MJD 57722.000000 (2016 Nov 30  0:00)
2013-070B = NORAD 39459 = UX29E26 = Chang'e 3 booster
1 39459U 13070B   16335.49921083  .00000000  00000-0  00000-0 0    08
2 39459 070.7360 350.9066 5741009 059.6276 198.0750 00.04243495    06

# Worst residual: 15.70 km
# MJD 57723.000000 (2016 Dec  1  0:00)
2013-070B = NORAD 39459 = UX29E26 = Chang'e 3 booster
1 39459U 13070B   16336.49921083  .00000000  00000-0  00000-0 0    09
2 39459 070.7124 350.8479 5729201 059.6555 212.9709 00.04236157    08

# Worst residual: 13.52 km
# MJD 57724.000000 (2016 Dec  2  0:00)
2013-070B = NORAD 39459 = UX29E26 = Chang'e 3 booster
1 39459U 13070B   16337.49921083  .00000000  00000-0  00000-0 0    00
2 39459 070.6569 350.7114 5715546 059.6375 227.9593 00.04228844    03

# Worst residual: 14.84 km
# MJD 57725.000000 (2016 Dec  3  0:00)
2013-070B = NORAD 39459 = UX29E26 = Chang'e 3 booster
1 39459U 13070B   16338.49921083  .00000000  00000-0  00000-0 0    01
2 39459 070.5922 350.5212 5697032 059.4588 243.2562 00.04216054    02

# Worst residual: 25.33 km
# MJD 57726.000000 (2016 Dec  4  0:00)
2013-070B = NORAD 39459 = UX29E26 = Chang'e 3 booster
1 39459U 13070B   16339.49921083  .00000000  00000-0  00000-0 0    02
2 39459 070.5394 350.3347 5674180 058.9479 259.1031 00.04188921    02

# Worst residual: 43.92 km
# MJD 57727.000000 (2016 Dec  5  0:00)
2013-070B = NORAD 39459 = UX29E26 = Chang'e 3 booster
1 39459U 13070B   16340.49921083  .00000000  00000-0  00000-0 0    04
2 39459 070.5052 350.2234 5655298 057.9020 275.7269 00.04134576    01

# Worst residual: 69.14 km
# MJD 57728.000000 (2016 Dec  6  0:00)
2013-070B = NORAD 39459 = UX29E26 = Chang'e 3 booster
1 39459U 13070B   16341.49921083  .00000000  00000-0  00000-0 0    05
2 39459 070.4776 350.2425 5661363 056.1398 293.2879 00.04034390    09
